[{"OBJECT_NAME":"KINEIS-5E","OBJECT_ID":"2024-219C","EPOCH":"2026-03-09T08:13:36.871104","MEAN_MOTION":14.7233986,"ECCENTRICITY":0.0003539,"INCLINATION":97.9554,"RA_OF_ASC_NODE":229.9749,"ARG_OF_PERICENTER":138.3063,"MEAN_ANOMALY":221.8414,"EPHEMERIS_TYPE":0,"CLASSIFICATION_TYPE":"U","NORAD_CAT_ID":62083,"ELEMENT_SET_NO":999,"REV_AT_EPOCH":6907,"BSTAR":0.00027255407,"MEAN_MOTION_DOT":1.675e-5,"MEAN_MOTION_DDOT":0},{"OBJECT_NAME":"CZ-6A DEB","OBJECT_ID":"2022-151ABG","EPOCH":"2026-03-09T18:19:48.141696","MEAN_MOTION":14.80094006,"ECCENTRICITY":0.00723552,"INCLINATION":98.8031,"RA_OF_ASC_NODE":169.3772,"ARG_OF_PERICENTER":206.7215,"MEAN_ANOMALY":153.0259,"EPHEMERIS_TYPE":0,"CLASSIFICATION_TYPE":"U","NORAD_CAT_ID":56240,"ELEMENT_SET_NO":999,"REV_AT_EPOCH":16470,"BSTAR":0.0032478848,"MEAN_MOTION_DOT":0.00025768,"MEAN_MOTION_DDOT":0}]
